     2.100          NAVIGATION                              RINEX VERSION / TYPE
fic2rin                                 01/03/2011 00:12:25 PGM / RUN BY / DATE
                                                            END OF HEADER
31 11  1  3  0  0  0.0  .254227779806D-04  .420641299570D-11  .000000000000D+00
     .930000000000D+02 -.645625000000D+02  .440696928225D-08  .304789361666D+00
    -.343658030033D-05  .783810333814D-02  .817701220512D-06  .515356661224D+04
     .864000000000D+05 -.782310962677D-07 -.149324912846D+01 -.726431608200D-07
     .978471132016D+00  .374843750000D+03 -.102725136587D+01 -.844499462507D-08
    -.227866634417D-09  .100000000000D+01  .161700000000D+04  .000000000000D+00
     .240000000000D+01  .000000000000D+00 -.130385160446D-07  .930000000000D+02
     .792060000000D+05  .400000000000D+01
32 11  1  3  0  0  0.0 -.166788697243D-03 -.818545231596D-11  .000000000000D+00
     .700000000000D+01  .661875000000D+02  .442339853802D-08  .109656061649D+01
     .334717333317D-05  .124159828993D-01  .111144036055D-04  .515377392006D+04
     .864000000000D+05  .283122062683D-06  .277500342071D+01 -.212341547012D-06
     .956812072481D+00  .163531250000D+03 -.847856668131D+00 -.778139555493D-08
    -.371444043564D-09  .100000000000D+01  .161700000000D+04  .000000000000D+00
     .240000000000D+01  .000000000000D+00 -.372529029846D-08  .700000000000D+01
     .792060000000D+05  .400000000000D+01
15 11  1  2 23 59 44.0 -.165265519172D-03  .397903932026D-11  .000000000000D+00
     .400000000000D+01  .133062500000D+03  .470233872843D-08  .239738836444D+01
     .705011188984D-05  .325456028804D-02  .513531267643D-05  .515388697243D+04
     .863840000000D+05 -.651925802231D-07 -.256585195250D+01  .126659870148D-06
     .951756975150D+00  .275656250000D+03 -.143205182442D+00 -.823069998455D-08
     .231438211759D-09  .100000000000D+01  .161700000000D+04  .000000000000D+00
     .240000000000D+01  .000000000000D+00 -.977888703346D-08  .400000000000D+01
     .837660000000D+05  .400000000000D+01
27 11  1  2 23 59 44.0  .223086681217D-03  .363797880709D-11  .000000000000D+00
     .260000000000D+02 -.428125000000D+02  .431303679815D-08  .277661184354D+01
    -.214576721191D-05  .218555673491D-01 -.564381480217D-06  .515374438667D+04
     .863840000000D+05  .445172190666D-06 -.154898152939D+01 -.558793544769D-08
     .979872635331D+00  .395906250000D+03 -.132252678464D+01 -.799819029959D-08
    -.248224625266D-09  .100000000000D+01  .161700000000D+04  .000000000000D+00
     .240000000000D+01  .000000000000D+00 -.419095158577D-08  .260000000000D+02
     .842160000000D+05  .400000000000D+01
21 11  1  2 23 59 44.0 -.113891437650D-03 -.272848410532D-11  .000000000000D+00
     .000000000000D+00 -.111562500000D+02  .566737892622D-08 -.477507734320D+00
    -.355765223503D-06  .170863007661D-01  .517815351486D-05  .515358760262D+04
     .863840000000D+05  .577419996262D-07  .165178225013D+01  .303611159325D-06
     .931466509125D+00  .263781250000D+03 -.242245150707D+01 -.874286417539D-08
    -.252867675811D-09  .100000000000D+01  .161700000000D+04  .000000000000D+00
     .240000000000D+01  .000000000000D+00 -.116415321827D-07  .000000000000D+00
     .849660000000D+05  .400000000000D+01
